[{"CCSDS_OMM_VERS":"2.0","COMMENT":"GENERATED VIA SPACE-TRACK.ORG API","CREATION_DATE":"2021-04-09T19:43:08","ORIGINATOR":"18 SPCS","OBJECT_NAME":"ONEWEB-0135","OBJECT_ID":"2020-100Z","CENTER_NAME":"EARTH","REF_FRAME":"TEME","TIME_SYSTEM":"UTC","MEAN_ELEMENT_THEORY":"SGP4","EPOCH":"2021-04-09T14:00:01.000224","MEAN_MOTION":"13.28421640","ECCENTRICITY":"0.00016730","INCLINATION":"87.9620","RA_OF_ASC_NODE":"7.3276","ARG_OF_PERICENTER":"90.0888","MEAN_ANOMALY":"2.3295","EPHEMERIS_TYPE":"0","CLASSIFICATION_TYPE":"U","NORAD_CAT_ID":"47281","ELEMENT_SET_NO":"999","REV_AT_EPOCH":"171","BSTAR":"0.09629700000000","MEAN_MOTION_DOT":"0.00044122","MEAN_MOTION_DDOT":"0.0000000000000","SEMIMAJOR_AXIS":"7530.860","PERIOD":"108.399","APOAPSIS":"1153.984","PERIAPSIS":"1151.465","OBJECT_TYPE":"PAYLOAD","RCS_SIZE":"LARGE","COUNTRY_CODE":"UK","LAUNCH_DATE":"2020-12-18","SITE":"VOSTO","DECAY_DATE":null,"FILE":"3012714","GP_ID":"175220984","TLE_LINE0":"0 ONEWEB-0135","TLE_LINE1":"1 47281U 20100Z   21099.58334491  .00044122  00000-0  96297-1 0  9990","TLE_LINE2":"2 47281  87.9620   7.3276 0001673  90.0888   2.3295 13.28421640  1712"},{"CCSDS_OMM_VERS":"2.0","COMMENT":"GENERATED VIA SPACE-TRACK.ORG API","CREATION_DATE":"2021-04-10T02:15:08","ORIGINATOR":"18 SPCS","OBJECT_NAME":"ONEWEB-0135","OBJECT_ID":"2020-100Z","CENTER_NAME":"EARTH","REF_FRAME":"TEME","TIME_SYSTEM":"UTC","MEAN_ELEMENT_THEORY":"SGP4","EPOCH":"2021-04-09T22:00:00.999936","MEAN_MOTION":"13.28464216","ECCENTRICITY":"0.00016170","INCLINATION":"87.9621","RA_OF_ASC_NODE":"7.2611","ARG_OF_PERICENTER":"89.0983","MEAN_ANOMALY":"156.5203","EPHEMERIS_TYPE":"0","CLASSIFICATION_TYPE":"U","NORAD_CAT_ID":"47281","ELEMENT_SET_NO":"999","REV_AT_EPOCH":"175","BSTAR":"-0.08733300000000","MEAN_MOTION_DOT":"-0.00039642","MEAN_MOTION_DDOT":"0.0000000000000","SEMIMAJOR_AXIS":"7530.699","PERIOD":"108.396","APOAPSIS":"1153.781","PERIAPSIS":"1151.346","OBJECT_TYPE":"PAYLOAD","RCS_SIZE":"LARGE","COUNTRY_CODE":"UK","LAUNCH_DATE":"2020-12-18","SITE":"VOSTO","DECAY_DATE":null,"FILE":"3013313","GP_ID":"175258654","TLE_LINE0":"0 ONEWEB-0135","TLE_LINE1":"1 47281U 20100Z   21099.91667824 -.00039642  00000-0 -87333-1 0  9990","TLE_LINE2":"2 47281  87.9621   7.2611 0001617  89.0983 156.5203 13.28464216  1758"},{"CCSDS_OMM_VERS":"2.0","COMMENT":"GENERATED VIA SPACE-TRACK.ORG API","CREATION_DATE":"2021-04-09T22:46:12","ORIGINATOR":"18 SPCS","OBJECT_NAME":"ONEWEB-0135","OBJECT_ID":"2020-100Z","CENTER_NAME":"EARTH","REF_FRAME":"TEME","TIME_SYSTEM":"UTC","MEAN_ELEMENT_THEORY":"SGP4","EPOCH":"2021-04-09T22:00:00.999936","MEAN_MOTION":"13.28464216","ECCENTRICITY":"0.00016170","INCLINATION":"87.9621","RA_OF_ASC_NODE":"7.2611","ARG_OF_PERICENTER":"89.0983","MEAN_ANOMALY":"156.5203","EPHEMERIS_TYPE":"0","CLASSIFICATION_TYPE":"U","NORAD_CAT_ID":"47281","ELEMENT_SET_NO":"999","REV_AT_EPOCH":"1625","BSTAR":"-0.08733300000000","MEAN_MOTION_DOT":"-0.00039642","MEAN_MOTION_DDOT":"0.0000000000000","SEMIMAJOR_AXIS":"7530.699","PERIOD":"108.396","APOAPSIS":"1153.781","PERIAPSIS":"1151.346","OBJECT_TYPE":"PAYLOAD","RCS_SIZE":"LARGE","COUNTRY_CODE":"UK","LAUNCH_DATE":"2020-12-18","SITE":"VOSTO","DECAY_DATE":null,"FILE":"3012880","GP_ID":"175225630","TLE_LINE0":"0 ONEWEB-0135","TLE_LINE1":"1 47281U 20100Z   21099.91667824 -.00039642  00000-0 -87333-1 0  9990","TLE_LINE2":"2 47281  87.9621   7.2611 0001617  89.0983 156.5203 13.28464216 16259"},{"CCSDS_OMM_VERS":"2.0","COMMENT":"GENERATED VIA SPACE-TRACK.ORG API","CREATION_DATE":"2021-04-10T14:36:11","ORIGINATOR":"18 SPCS","OBJECT_NAME":"ONEWEB-0135","OBJECT_ID":"2020-100Z","CENTER_NAME":"EARTH","REF_FRAME":"TEME","TIME_SYSTEM":"UTC","MEAN_ELEMENT_THEORY":"SGP4","EPOCH":"2021-04-10T14:00:01.999872","MEAN_MOTION":"13.28421192","ECCENTRICITY":"0.00016670","INCLINATION":"87.9618","RA_OF_ASC_NODE":"7.1298","ARG_OF_PERICENTER":"90.1118","MEAN_ANOMALY":"102.0018","EPHEMERIS_TYPE":"0","CLASSIFICATION_TYPE":"U","NORAD_CAT_ID":"47281","ELEMENT_SET_NO":"999","REV_AT_EPOCH":"1634","BSTAR":"0.09579900000000","MEAN_MOTION_DOT":"0.00043892","MEAN_MOTION_DDOT":"0.0000000000000","SEMIMAJOR_AXIS":"7530.861","PERIOD":"108.399","APOAPSIS":"1153.982","PERIAPSIS":"1151.471","OBJECT_TYPE":"PAYLOAD","RCS_SIZE":"LARGE","COUNTRY_CODE":"UK","LAUNCH_DATE":"2020-12-18","SITE":"VOSTO","DECAY_DATE":null,"FILE":"3013885","GP_ID":"175269594","TLE_LINE0":"0 ONEWEB-0135","TLE_LINE1":"1 47281U 20100Z   21100.58335648  .00043892  00000-0  95799-1 0  9997","TLE_LINE2":"2 47281  87.9618   7.1298 0001667  90.1118 102.0018 13.28421192 16349"},{"CCSDS_OMM_VERS":"2.0","COMMENT":"GENERATED VIA SPACE-TRACK.ORG API","CREATION_DATE":"2021-04-11T03:22:01","ORIGINATOR":"18 SPCS","OBJECT_NAME":"ONEWEB-0135","OBJECT_ID":"2020-100Z","CENTER_NAME":"EARTH","REF_FRAME":"TEME","TIME_SYSTEM":"UTC","MEAN_ELEMENT_THEORY":"SGP4","EPOCH":"2021-04-11T00:00:02.000160","MEAN_MOTION":"13.28439834","ECCENTRICITY":"0.00016470","INCLINATION":"87.9616","RA_OF_ASC_NODE":"7.0466","ARG_OF_PERICENTER":"90.2148","MEAN_ANOMALY":"293.4101","EPHEMERIS_TYPE":"0","CLASSIFICATION_TYPE":"U","NORAD_CAT_ID":"47281","ELEMENT_SET_NO":"999","REV_AT_EPOCH":"170","BSTAR":"0.00201070000000","MEAN_MOTION_DOT":"0.00000930","MEAN_MOTION_DDOT":"0.0000000000000","SEMIMAJOR_AXIS":"7530.791","PERIOD":"108.398","APOAPSIS":"1153.896","PERIAPSIS":"1151.415","OBJECT_TYPE":"PAYLOAD","RCS_SIZE":"LARGE","COUNTRY_CODE":"UK","LAUNCH_DATE":"2020-12-18","SITE":"VOSTO","DECAY_DATE":null,"FILE":"3014391","GP_ID":"175327183","TLE_LINE0":"0 ONEWEB-0135","TLE_LINE1":"1 47281U 20100Z   21101.00002315  .00000930  00000-0  20107-2 0  9995","TLE_LINE2":"2 47281  87.9616   7.0466 0001647  90.2148 293.4101 13.28439834  1709"},{"CCSDS_OMM_VERS":"2.0","COMMENT":"GENERATED VIA SPACE-TRACK.ORG API","CREATION_DATE":"2021-04-11T06:46:12","ORIGINATOR":"18 SPCS","OBJECT_NAME":"ONEWEB-0135","OBJECT_ID":"2020-100Z","CENTER_NAME":"EARTH","REF_FRAME":"TEME","TIME_SYSTEM":"UTC","MEAN_ELEMENT_THEORY":"SGP4","EPOCH":"2021-04-11T06:00:00.999648","MEAN_MOTION":"13.28452172","ECCENTRICITY":"0.00017010","INCLINATION":"87.9615","RA_OF_ASC_NODE":"6.9972","ARG_OF_PERICENTER":"89.2569","MEAN_ANOMALY":"49.2121","EPHEMERIS_TYPE":"0","CLASSIFICATION_TYPE":"U","NORAD_CAT_ID":"47281","ELEMENT_SET_NO":"999","REV_AT_EPOCH":"1643","BSTAR":"-0.01322400000000","MEAN_MOTION_DOT":"-0.00006013","MEAN_MOTION_DDOT":"0.0000000000000","SEMIMAJOR_AXIS":"7530.744","PERIOD":"108.397","APOAPSIS":"1153.890","PERIAPSIS":"1151.328","OBJECT_TYPE":"PAYLOAD","RCS_SIZE":"LARGE","COUNTRY_CODE":"UK","LAUNCH_DATE":"2020-12-18","SITE":"VOSTO","DECAY_DATE":null,"FILE":"3014531","GP_ID":"175330702","TLE_LINE0":"0 ONEWEB-0135","TLE_LINE1":"1 47281U 20100Z   21101.25001157 -.00006013  00000-0 -13224-1 0  9996","TLE_LINE2":"2 47281  87.9615   6.9972 0001701  89.2569  49.2121 13.28452172 16439"},{"CCSDS_OMM_VERS":"2.0","COMMENT":"GENERATED VIA SPACE-TRACK.ORG API","CREATION_DATE":"2021-04-11T18:26:10","ORIGINATOR":"18 SPCS","OBJECT_NAME":"ONEWEB-0135","OBJECT_ID":"2020-100Z","CENTER_NAME":"EARTH","REF_FRAME":"TEME","TIME_SYSTEM":"UTC","MEAN_ELEMENT_THEORY":"SGP4","EPOCH":"2021-04-11T14:00:01.999872","MEAN_MOTION":"13.28420726","ECCENTRICITY":"0.00017000","INCLINATION":"87.9613","RA_OF_ASC_NODE":"6.9320","ARG_OF_PERICENTER":"90.7235","MEAN_ANOMALY":"201.0252","EPHEMERIS_TYPE":"0","CLASSIFICATION_TYPE":"U","NORAD_CAT_ID":"47281","ELEMENT_SET_NO":"999","REV_AT_EPOCH":"175","BSTAR":"0.09220100000000","MEAN_MOTION_DOT":"0.00042236","MEAN_MOTION_DDOT":"0.0000000000000","SEMIMAJOR_AXIS":"7530.863","PERIOD":"108.399","APOAPSIS":"1154.008","PERIAPSIS":"1151.448","OBJECT_TYPE":"PAYLOAD","RCS_SIZE":"LARGE","COUNTRY_CODE":"UK","LAUNCH_DATE":"2020-12-18","SITE":"VOSTO","DECAY_DATE":null,"FILE":"3015419","GP_ID":"175372095","TLE_LINE0":"0 ONEWEB-0135","TLE_LINE1":"1 47281U 20100Z   21101.58335648  .00042236  00000-0  92201-1 0  9994","TLE_LINE2":"2 47281  87.9613   6.9320 0001700  90.7235 201.0252 13.28420726  1752"},{"CCSDS_OMM_VERS":"2.0","COMMENT":"GENERATED VIA SPACE-TRACK.ORG API","CREATION_DATE":"2021-04-12T02:18:20","ORIGINATOR":"18 SPCS","OBJECT_NAME":"ONEWEB-0135","OBJECT_ID":"2020-100Z","CENTER_NAME":"EARTH","REF_FRAME":"TEME","TIME_SYSTEM":"UTC","MEAN_ELEMENT_THEORY":"SGP4","EPOCH":"2021-04-11T22:00:01.999584","MEAN_MOTION":"13.28459565","ECCENTRICITY":"0.00016310","INCLINATION":"87.9612","RA_OF_ASC_NODE":"6.8654","ARG_OF_PERICENTER":"90.9465","MEAN_ANOMALY":"354.0016","EPHEMERIS_TYPE":"0","CLASSIFICATION_TYPE":"U","NORAD_CAT_ID":"47281","ELEMENT_SET_NO":"999","REV_AT_EPOCH":"174","BSTAR":"-0.08042600000000","MEAN_MOTION_DOT":"-0.00036516","MEAN_MOTION_DDOT":"0.0000000000000","SEMIMAJOR_AXIS":"7530.716","PERIOD":"108.396","APOAPSIS":"1153.809","PERIAPSIS":"1151.353","OBJECT_TYPE":"PAYLOAD","RCS_SIZE":"LARGE","COUNTRY_CODE":"UK","LAUNCH_DATE":"2020-12-18","SITE":"VOSTO","DECAY_DATE":null,"FILE":"3015786","GP_ID":"175402749","TLE_LINE0":"0 ONEWEB-0135","TLE_LINE1":"1 47281U 20100Z   21101.91668981 -.00036516  00000-0 -80426-1 0  9992","TLE_LINE2":"2 47281  87.9612   6.8654 0001631  90.9465 354.0016 13.28459565  1749"}]